[{"OBJECT_NAME":"ONEWEB-0095","OBJECT_ID":"2020-020N","EPOCH":"2025-11-04T06:38:09.645792","MEAN_MOTION":13.11414899,"ECCENTRICITY":0.00014552,"INCLINATION":87.885,"RA_OF_ASC_NODE":65.8526,"ARG_OF_PERICENTER":72.5429,"MEAN_ANOMALY":287.5858,"EPHEMERIS_TYPE":0,"CLASSIFICATION_TYPE":"U","NORAD_CAT_ID":45436,"ELEMENT_SET_NO":999,"REV_AT_EPOCH":27319,"BSTAR":-0.0010676445,"MEAN_MOTION_DOT":-3.66e-6,"MEAN_MOTION_DDOT":0},{"OBJECT_NAME":"ONEWEB-0092","OBJECT_ID":"2020-020P","EPOCH":"2025-11-04T02:17:57.722208","MEAN_MOTION":13.1141696,"ECCENTRICITY":0.00015011,"INCLINATION":87.8859,"RA_OF_ASC_NODE":65.8849,"ARG_OF_PERICENTER":93.2781,"MEAN_ANOMALY":266.8518,"EPHEMERIS_TYPE":0,"CLASSIFICATION_TYPE":"U","NORAD_CAT_ID":45437,"ELEMENT_SET_NO":999,"REV_AT_EPOCH":27328,"BSTAR":0.0011031918,"MEAN_MOTION_DOT":4.04e-6,"MEAN_MOTION_DDOT":0},{"OBJECT_NAME":"ONEWEB-0085","OBJECT_ID":"2020-020Q","EPOCH":"2025-11-04T06:50:10.360896","MEAN_MOTION":13.11417104,"ECCENTRICITY":0.0001562,"INCLINATION":87.885,"RA_OF_ASC_NODE":65.8582,"ARG_OF_PERICENTER":99.9043,"MEAN_ANOMALY":260.2261,"EPHEMERIS_TYPE":0,"CLASSIFICATION_TYPE":"U","NORAD_CAT_ID":45438,"ELEMENT_SET_NO":999,"REV_AT_EPOCH":27319,"BSTAR":-0.0020663354,"MEAN_MOTION_DOT":-7.2e-6,"MEAN_MOTION_DDOT":0},{"OBJECT_NAME":"ONEWEB-0096","OBJECT_ID":"2020-020R","EPOCH":"2025-11-04T06:52:36.282720","MEAN_MOTION":13.11416121,"ECCENTRICITY":0.00015953,"INCLINATION":87.8862,"RA_OF_ASC_NODE":65.8341,"ARG_OF_PERICENTER":106.9982,"MEAN_ANOMALY":253.132,"EPHEMERIS_TYPE":0,"CLASSIFICATION_TYPE":"U","NORAD_CAT_ID":45439,"ELEMENT_SET_NO":999,"REV_AT_EPOCH":27318,"BSTAR":-0.0013416273,"MEAN_MOTION_DOT":-4.63e-6,"MEAN_MOTION_DDOT":0},{"OBJECT_NAME":"ONEWEB-0037","OBJECT_ID":"2020-020S","EPOCH":"2025-11-04T06:24:33.223680","MEAN_MOTION":13.11414777,"ECCENTRICITY":0.00015335,"INCLINATION":87.8867,"RA_OF_ASC_NODE":65.8053,"ARG_OF_PERICENTER":97.7271,"MEAN_ANOMALY":262.4031,"EPHEMERIS_TYPE":0,"CLASSIFICATION_TYPE":"U","NORAD_CAT_ID":45440,"ELEMENT_SET_NO":999,"REV_AT_EPOCH":27321,"BSTAR":-0.00057559316,"MEAN_MOTION_DOT":-1.91e-6,"MEAN_MOTION_DDOT":0},{"OBJECT_NAME":"ONEWEB-0042","OBJECT_ID":"2020-020T","EPOCH":"2025-11-04T06:37:45.963552","MEAN_MOTION":13.11414334,"ECCENTRICITY":0.00014796,"INCLINATION":87.8855,"RA_OF_ASC_NODE":65.8372,"ARG_OF_PERICENTER":100.9331,"MEAN_ANOMALY":259.1963,"EPHEMERIS_TYPE":0,"CLASSIFICATION_TYPE":"U","NORAD_CAT_ID":45441,"ELEMENT_SET_NO":999,"REV_AT_EPOCH":27318,"BSTAR":-0.0014435918,"MEAN_MOTION_DOT":-4.99e-6,"MEAN_MOTION_DDOT":0},{"OBJECT_NAME":"ONEWEB-0098","OBJECT_ID":"2020-020U","EPOCH":"2025-11-04T06:31:51.997440","MEAN_MOTION":13.11414284,"ECCENTRICITY":0.00017076,"INCLINATION":87.8854,"RA_OF_ASC_NODE":65.8498,"ARG_OF_PERICENTER":100.5259,"MEAN_ANOMALY":259.6061,"EPHEMERIS_TYPE":0,"CLASSIFICATION_TYPE":"U","NORAD_CAT_ID":45442,"ELEMENT_SET_NO":999,"REV_AT_EPOCH":27316,"BSTAR":-0.0011519101,"MEAN_MOTION_DOT":-3.96e-6,"MEAN_MOTION_DDOT":0},{"OBJECT_NAME":"ONEWEB-0055","OBJECT_ID":"2020-020V","EPOCH":"2025-11-04T00:37:51.223584","MEAN_MOTION":13.11416259,"ECCENTRICITY":0.00016721,"INCLINATION":87.8856,"RA_OF_ASC_NODE":65.8995,"ARG_OF_PERICENTER":100.5784,"MEAN_ANOMALY":259.5532,"EPHEMERIS_TYPE":0,"CLASSIFICATION_TYPE":"U","NORAD_CAT_ID":45443,"ELEMENT_SET_NO":999,"REV_AT_EPOCH":27310,"BSTAR":0.00079447795,"MEAN_MOTION_DOT":2.94e-6,"MEAN_MOTION_DDOT":0},{"OBJECT_NAME":"ONEWEB-0093","OBJECT_ID":"2020-020W","EPOCH":"2025-11-04T07:22:08.513472","MEAN_MOTION":13.11418858,"ECCENTRICITY":0.00012683,"INCLINATION":87.8858,"RA_OF_ASC_NODE":65.8299,"ARG_OF_PERICENTER":112.2376,"MEAN_ANOMALY":247.8886,"EPHEMERIS_TYPE":0,"CLASSIFICATION_TYPE":"U","NORAD_CAT_ID":45444,"ELEMENT_SET_NO":999,"REV_AT_EPOCH":27320,"BSTAR":0.00082239629,"MEAN_MOTION_DOT":3.04e-6,"MEAN_MOTION_DDOT":0},{"OBJECT_NAME":"ONEWEB-0029","OBJECT_ID":"2020-020X","EPOCH":"2025-11-04T02:15:31.832352","MEAN_MOTION":13.11415505,"ECCENTRICITY":0.00015788,"INCLINATION":87.8855,"RA_OF_ASC_NODE":65.8851,"ARG_OF_PERICENTER":104.4348,"MEAN_ANOMALY":255.6956,"EPHEMERIS_TYPE":0,"CLASSIFICATION_TYPE":"U","NORAD_CAT_ID":45445,"ELEMENT_SET_NO":999,"REV_AT_EPOCH":27315,"BSTAR":0.0013011461,"MEAN_MOTION_DOT":4.74e-6,"MEAN_MOTION_DDOT":0},{"OBJECT_NAME":"ONEWEB-0068","OBJECT_ID":"2020-020Y","EPOCH":"2025-11-04T07:21:42.740352","MEAN_MOTION":13.11420576,"ECCENTRICITY":0.00015786,"INCLINATION":87.8859,"RA_OF_ASC_NODE":65.831,"ARG_OF_PERICENTER":107.1092,"MEAN_ANOMALY":253.0209,"EPHEMERIS_TYPE":0,"CLASSIFICATION_TYPE":"U","NORAD_CAT_ID":45446,"ELEMENT_SET_NO":999,"REV_AT_EPOCH":27312,"BSTAR":0.00075764488,"MEAN_MOTION_DOT":2.81e-6,"MEAN_MOTION_DDOT":0},{"OBJECT_NAME":"ONEWEB-0046","OBJECT_ID":"2020-020Z","EPOCH":"2025-11-04T07:09:41.728896","MEAN_MOTION":13.11418554,"ECCENTRICITY":0.00013705,"INCLINATION":87.8856,"RA_OF_ASC_NODE":65.8411,"ARG_OF_PERICENTER":101.131,"MEAN_ANOMALY":258.9972,"EPHEMERIS_TYPE":0,"CLASSIFICATION_TYPE":"U","NORAD_CAT_ID":45447,"ELEMENT_SET_NO":999,"REV_AT_EPOCH":27313,"BSTAR":-0.0011012136,"MEAN_MOTION_DOT":-3.78e-6,"MEAN_MOTION_DDOT":0},{"OBJECT_NAME":"ONEWEB-0063","OBJECT_ID":"2020-020AA","EPOCH":"2025-11-03T13:32:33.895680","MEAN_MOTION":13.11416331,"ECCENTRICITY":0.00014836,"INCLINATION":87.8856,"RA_OF_ASC_NODE":65.9856,"ARG_OF_PERICENTER":94.3477,"MEAN_ANOMALY":265.7821,"EPHEMERIS_TYPE":0,"CLASSIFICATION_TYPE":"U","NORAD_CAT_ID":45448,"ELEMENT_SET_NO":999,"REV_AT_EPOCH":27312,"BSTAR":0.001085901,"MEAN_MOTION_DOT":3.98e-6,"MEAN_MOTION_DDOT":0},{"OBJECT_NAME":"ONEWEB-0019","OBJECT_ID":"2020-020AB","EPOCH":"2025-11-04T07:13:23.229984","MEAN_MOTION":13.11419367,"ECCENTRICITY":0.00017002,"INCLINATION":87.8853,"RA_OF_ASC_NODE":65.8526,"ARG_OF_PERICENTER":102.2409,"MEAN_ANOMALY":257.891,"EPHEMERIS_TYPE":0,"CLASSIFICATION_TYPE":"U","NORAD_CAT_ID":45449,"ELEMENT_SET_NO":999,"REV_AT_EPOCH":27306,"BSTAR":7.657203e-5,"MEAN_MOTION_DOT":4.0e-7,"MEAN_MOTION_DDOT":0},{"OBJECT_NAME":"ONEWEB-0094","OBJECT_ID":"2020-020AC","EPOCH":"2025-11-04T06:43:12.509760","MEAN_MOTION":13.17649219,"ECCENTRICITY":0.0001707,"INCLINATION":87.9136,"RA_OF_ASC_NODE":50.5556,"ARG_OF_PERICENTER":101.8513,"MEAN_ANOMALY":258.281,"EPHEMERIS_TYPE":0,"CLASSIFICATION_TYPE":"U","NORAD_CAT_ID":45450,"ELEMENT_SET_NO":999,"REV_AT_EPOCH":27669,"BSTAR":1.082673e-6,"MEAN_MOTION_DOT":1.3e-7,"MEAN_MOTION_DDOT":0},{"OBJECT_NAME":"ONEWEB-0087","OBJECT_ID":"2020-020AD","EPOCH":"2025-11-04T00:46:11.921952","MEAN_MOTION":13.11416087,"ECCENTRICITY":0.00016313,"INCLINATION":87.8867,"RA_OF_ASC_NODE":65.8467,"ARG_OF_PERICENTER":112.6703,"MEAN_ANOMALY":247.4598,"EPHEMERIS_TYPE":0,"CLASSIFICATION_TYPE":"U","NORAD_CAT_ID":45451,"ELEMENT_SET_NO":999,"REV_AT_EPOCH":27307,"BSTAR":-0.00012327648,"MEAN_MOTION_DOT":-3.1e-7,"MEAN_MOTION_DDOT":0}]
