ONEWEB-0095             
1 45436U 20020N   25308.27650053 -.00000366  00000+0 -10676-2 0  9990
2 45436  87.8850  65.8526 0001455  72.5429 287.5858 13.11414899273192
ONEWEB-0092             
1 45437U 20020P   25308.09580697  .00000404  00000+0  11032-2 0  9995
2 45437  87.8859  65.8849 0001501  93.2781 266.8518 13.11416960273287
ONEWEB-0085             
1 45438U 20020Q   25308.28484214 -.00000720  00000+0 -20663-2 0  9998
2 45438  87.8850  65.8582 0001562  99.9043 260.2261 13.11417104273198
ONEWEB-0096             
1 45439U 20020R   25308.28653105 -.00000463  00000+0 -13416-2 0  9998
2 45439  87.8862  65.8341 0001595 106.9982 253.1320 13.11416121273186
ONEWEB-0037             
1 45440U 20020S   25308.26705120 -.00000191  00000+0 -57559-3 0  9998
2 45440  87.8867  65.8053 0001533  97.7271 262.4031 13.11414777273214
ONEWEB-0042             
1 45441U 20020T   25308.27622643 -.00000499  00000+0 -14436-2 0  9995
2 45441  87.8855  65.8372 0001479 100.9331 259.1963 13.11414334273181
ONEWEB-0098             
1 45442U 20020U   25308.27212960 -.00000396  00000+0 -11519-2 0  9998
2 45442  87.8854  65.8498 0001707 100.5259 259.6061 13.11414284273165
ONEWEB-0055             
1 45443U 20020V   25308.02628731  .00000294  00000+0  79448-3 0  9990
2 45443  87.8856  65.8995 0001672 100.5784 259.5532 13.11416259273104
ONEWEB-0093             
1 45444U 20020W   25308.30704298  .00000304  00000+0  82240-3 0  9991
2 45444  87.8858  65.8299 0001268 112.2376 247.8886 13.11418858273202
ONEWEB-0029             
1 45445U 20020X   25308.09411843  .00000474  00000+0  13011-2 0  9996
2 45445  87.8855  65.8851 0001578 104.4348 255.6956 13.11415505273155
ONEWEB-0068             
1 45446U 20020Y   25308.30674468  .00000281  00000+0  75764-3 0  9995
2 45446  87.8859  65.8310 0001578 107.1092 253.0209 13.11420576273120
ONEWEB-0046             
1 45447U 20020Z   25308.29839964 -.00000378  00000+0 -11012-2 0  9992
2 45447  87.8856  65.8411 0001370 101.1310 258.9972 13.11418554273132
ONEWEB-0063             
1 45448U 20020AA  25307.56428120  .00000398  00000+0  10859-2 0  9998
2 45448  87.8856  65.9856 0001483  94.3477 265.7821 13.11416331273128
ONEWEB-0019             
1 45449U 20020AB  25308.30096331  .00000040  00000+0  76572-4 0  9997
2 45449  87.8853  65.8526 0001700 102.2409 257.8910 13.11419367273061
ONEWEB-0094             
1 45450U 20020AC  25308.28000590  .00000013  00000+0  10827-5 0  9990
2 45450  87.9136  50.5556 0001707 101.8513 258.2810 13.17649219276693
ONEWEB-0087             
1 45451U 20020AD  25308.03208243 -.00000031  00000+0 -12328-3 0  9997
2 45451  87.8867  65.8467 0001631 112.6703 247.4598 13.11416087273072
